     2              NAVIGATION DATA                         RINEX VERSION / TYPE
CCRINEXN V1.6.0 UX  CDDIS               13-NOV-16 15:33     PGM / RUN BY / DATE 
IGS BROADCAST EPHEMERIS FILE                                COMMENT             
    0.1211D-07 -0.7451D-08 -0.1192D-06  0.5960D-07          ION ALPHA           
    0.9830D+05 -0.8192D+05 -0.1966D+06  0.4588D+06          ION BETA            
    0.465661287308D-08 0.106581410364D-13   147456     1923 DELTA-UTC: A0,A1,T,W
    17                                                      LEAP SECONDS        
                                                            END OF HEADER       
16 16 11 12  0  0  0.0 0.151377171278D-04 0.159161572810D-11 0.000000000000D+00
    0.950000000000D+02-0.101343750000D+03 0.366908148308D-08-0.149412786093D+01
   -0.524893403053D-05 0.876510562375D-02 0.105649232864D-04 0.515359967804D+04
    0.518400000000D+06 0.521540641785D-07-0.911219232830D+00-0.191852450371D-06
    0.990455191611D+00 0.191531250000D+03 0.381021393722D+00-0.765853336304D-08
   -0.392873511501D-09 0.100000000000D+01 0.192200000000D+04 0.000000000000D+00
    0.200000000000D+01 0.000000000000D+00-0.102445483208D-07 0.950000000000D+02
    0.518400000000D+06 0.000000000000D+00 0.000000000000D+00 0.000000000000D+00
17 16 11 12  0  0  0.0-0.199339352548D-03 0.795807864051D-12 0.000000000000D+00
    0.680000000000D+02 0.436250000000D+02 0.390373403476D-08-0.250324783329D+01
    0.230222940445D-05 0.114239915274D-01 0.106822699308D-04 0.515377075005D+04
    0.518400000000D+06 0.651925802231D-07 0.107928310047D+00-0.633299350738D-07
    0.978445811830D+00 0.183468750000D+03-0.191255441391D+01-0.753745682247D-08
    0.526093342471D-09 0.100000000000D+01 0.192200000000D+04 0.000000000000D+00
    0.200000000000D+01 0.000000000000D+00-0.107102096081D-07 0.680000000000D+02
    0.517410000000D+06 0.400000000000D+01 0.000000000000D+00 0.000000000000D+00
18 16 11 12  0  0  0.0 0.575169920921D-03 0.329691829393D-11 0.000000000000D+00
    0.260000000000D+02-0.613750000000D+02 0.547308511882D-08-0.911630649281D+00
   -0.294484198093D-05 0.172799143474D-01 0.109374523163D-04 0.515372789192D+04
    0.518400000000D+06-0.126659870148D-06 0.211787646583D+01 0.305473804474D-06
    0.925001800986D+00 0.152687500000D+03-0.185247864724D+01-0.873857828258D-08
   -0.485734518507D-09 0.100000000000D+01 0.192200000000D+04 0.000000000000D+00
    0.200000000000D+01 0.000000000000D+00-0.111758708954D-07 0.260000000000D+02
    0.515700000000D+06 0.400000000000D+01 0.000000000000D+00 0.000000000000D+00
19 16 11 12  0  0  0.0-0.520188827068D-03 0.682121026330D-12 0.000000000000D+00
    0.410000000000D+02 0.452187500000D+02 0.405588322953D-08 0.659304865391D+00
    0.254809856415D-05 0.103314113803D-01 0.103637576103D-04 0.515363486671D+04
    0.518400000000D+06-0.255182385445D-06 0.156221079121D+00 0.117346644402D-06
    0.975596713039D+00 0.191750000000D+03 0.886095973043D+00-0.790675791963D-08
    0.412874340731D-09 0.000000000000D+00 0.192200000000D+04 0.000000000000D+00
    0.200000000000D+01 0.000000000000D+00-0.149011611938D-07 0.410000000000D+02
    0.518340000000D+06 0.400000000000D+01 0.000000000000D+00 0.000000000000D+00
21 16 11 12  0  0  0.0-0.531763304025D-03 0.909494701773D-12 0.000000000000D+00
    0.490000000000D+02 0.506250000000D+01 0.566130724474D-08 0.321710036857D-01
    0.374391674995D-06 0.234130056342D-01 0.410526990890D-05 0.515378179932D+04
    0.518400000000D+06-0.454485416412D-06 0.107608048314D+01 0.165775418282D-06
    0.937507592760D+00 0.292437500000D+03-0.174327527535D+01-0.917895376884D-08
    0.135362781260D-09 0.100000000000D+01 0.192200000000D+04 0.000000000000D+00
    0.200000000000D+01 0.000000000000D+00-0.977888703346D-08 0.490000000000D+02
    0.511758000000D+06 0.400000000000D+01 0.000000000000D+00 0.000000000000D+00
22 16 11 12  0  0  0.0 0.192873179913D-03-0.108002495835D-10 0.000000000000D+00
    0.840000000000D+02-0.720312500000D+02 0.536558064083D-08-0.297794243612D+01
   -0.395625829697D-05 0.731887773145D-02 0.984035432339D-05 0.515367754555D+04
    0.518400000000D+06 0.577419996262D-07 0.211816346841D+01-0.465661287308D-07
    0.922968595015D+00 0.169281250000D+03-0.185037212420D+01-0.832070373357D-08
   -0.418588864478D-09 0.100000000000D+01 0.192200000000D+04 0.000000000000D+00
    0.200000000000D+01 0.000000000000D+00-0.176951289177D-07 0.840000000000D+02
    0.517470000000D+06 0.400000000000D+01 0.000000000000D+00 0.000000000000D+00
23 16 11 12  0  0  0.0-0.196411274374D-03-0.125055521494D-11 0.000000000000D+00
    0.900000000000D+01 0.976250000000D+02 0.477341311753D-08 0.257801365717D+01
    0.507012009621D-05 0.111417755252D-01 0.111088156700D-04 0.515359384728D+04
    0.518400000000D+06-0.126659870148D-06-0.308515335016D+01-0.223517417908D-06
    0.945656744273D+00 0.158656250000D+03-0.252386344017D+01-0.801390523989D-08
    0.380015829185D-09 0.100000000000D+01 0.192200000000D+04 0.000000000000D+00
    0.200000000000D+01 0.000000000000D+00-0.200234353542D-07 0.900000000000D+01
    0.517470000000D+06 0.400000000000D+01 0.000000000000D+00 0.000000000000D+00
24 16 11 12  0  0  0.0-0.259741209447D-04-0.568434188608D-12 0.000000000000D+00
    0.430000000000D+02 0.243125000000D+02 0.545558438984D-08 0.199661154065D+01
    0.129826366901D-05 0.495461386163D-02 0.191479921341D-05 0.515371410370D+04
    0.518400000000D+06-0.176951289177D-06-0.206050726876D+01 0.894069671631D-07
    0.947474503373D+00 0.334937500000D+03 0.397617254286D+00-0.884751139150D-08
    0.278583032673D-10 0.100000000000D+01 0.192200000000D+04 0.000000000000D+00
    0.200000000000D+01 0.000000000000D+00 0.232830643654D-08 0.430000000000D+02
    0.513930000000D+06 0.400000000000D+01 0.000000000000D+00 0.000000000000D+00
25 16 11 12  0  0  0.0-0.280341599137D-03-0.682121026330D-11 0.000000000000D+00
    0.320000000000D+02-0.100156250000D+03 0.412517182996D-08-0.841707208598D-01
   -0.524334609509D-05 0.567789317574D-02 0.996142625809D-05 0.515367999458D+04
    0.518400000000D+06 0.316649675369D-07-0.982959802096D+00 0.633299350738D-07
    0.977998245210D+00 0.193500000000D+03 0.762099041033D+00-0.806069290307D-08
   -0.562880589093D-09 0.100000000000D+01 0.192200000000D+04 0.000000000000D+00
    0.200000000000D+01 0.000000000000D+00 0.558793544769D-08 0.320000000000D+02
    0.517470000000D+06 0.400000000000D+01 0.000000000000D+00 0.000000000000D+00
26 16 11 12  0  0  0.0-0.499635003507D-03-0.466116034659D-11 0.000000000000D+00
    0.860000000000D+02-0.116625000000D+03 0.440804075545D-08-0.419564417982D+00
   -0.604242086411D-05 0.121782626957D-02 0.973977148533D-05 0.515361326790D+04
    0.518400000000D+06 0.651925802231D-07-0.994908608291D+00-0.633299350738D-07
    0.959876600588D+00 0.194031250000D+03-0.208357437232D+00-0.814212486647D-08
   -0.559666169485D-09 0.100000000000D+01 0.192200000000D+04 0.000000000000D+00
    0.200000000000D+01 0.000000000000D+00 0.745058059692D-08 0.860000000000D+02
    0.511218000000D+06 0.400000000000D+01 0.000000000000D+00 0.000000000000D+00
27 16 11 12  0  0  0.0 0.164268538356D-03 0.522959453519D-11 0.000000000000D+00
    0.260000000000D+02 0.285312500000D+02 0.401552440557D-08-0.240900390034D+01
    0.155717134476D-05 0.392713269684D-02 0.115800648928D-04 0.515365584564D+04
    0.518400000000D+06-0.223517417908D-07 0.570807535054D-01-0.633299350738D-07
    0.973387011853D+00 0.162906250000D+03 0.317912738936D+00-0.774710841245D-08
    0.502878089748D-09 0.100000000000D+01 0.192200000000D+04 0.000000000000D+00
    0.200000000000D+01 0.000000000000D+00 0.139698386192D-08 0.260000000000D+02
    0.514200000000D+06 0.400000000000D+01 0.000000000000D+00 0.000000000000D+00
28 16 11 12  0  0  0.0 0.566274393350D-03 0.295585778076D-11 0.000000000000D+00
    0.700000000000D+02-0.806875000000D+02 0.375408494413D-08-0.158897947249D+01
   -0.405125319958D-05 0.200871503912D-01 0.101588666439D-04 0.515363747978D+04
    0.518400000000D+06 0.912696123123D-07-0.906441062966D+00 0.542029738426D-06
    0.989206027807D+00 0.197906250000D+03-0.160288985434D+01-0.770389232661D-08
   -0.497877881469D-09 0.100000000000D+01 0.192200000000D+04 0.000000000000D+00
    0.400000000000D+01 0.000000000000D+00-0.111758708954D-07 0.700000000000D+02
    0.511218000000D+06 0.400000000000D+01 0.000000000000D+00 0.000000000000D+00
29 16 11 12  0  0  0.0 0.643879175186D-03-0.159161572810D-11 0.000000000000D+00
    0.590000000000D+02 0.464062500000D+02 0.402588197986D-08-0.331279814951D+00
    0.232644379139D-05 0.499454443343D-03 0.114850699902D-04 0.515372148895D+04
    0.518400000000D+06 0.726431608200D-07 0.117820399715D+00 0.149011611938D-07
    0.979476329361D+00 0.168875000000D+03-0.365181847176D-01-0.782425448303D-08
    0.523236080597D-09 0.100000000000D+01 0.192200000000D+04 0.000000000000D+00
    0.200000000000D+01 0.000000000000D+00-0.102445483208D-07 0.590000000000D+02
    0.515850000000D+06 0.400000000000D+01 0.000000000000D+00 0.000000000000D+00
30 16 11 12  0  0  0.0 0.156835187227D-03 0.102318153950D-11 0.000000000000D+00
    0.560000000000D+02 0.787500000000D+01 0.528843457914D-08 0.103510052556D+01
    0.432133674622D-06 0.237829855178D-02 0.178627669811D-05 0.515374973679D+04
    0.518400000000D+06 0.298023223877D-07-0.196865050505D+01-0.949949026108D-07
    0.950127559438D+00 0.335937500000D+03-0.312474978808D+01-0.881000961073D-08
   -0.136791411531D-09 0.100000000000D+01 0.192200000000D+04 0.000000000000D+00
    0.200000000000D+01 0.000000000000D+00 0.372529029846D-08 0.560000000000D+02
    0.518400000000D+06 0.000000000000D+00 0.000000000000D+00 0.000000000000D+00
